TANAGER-1               
1 60507U 24149AR  26201.98216352  .00000223  00000+0  67777-5 0  9990
2 60507  97.2316 296.0820 0001970 137.5704 222.5698 15.43878726108250
